{
  "type": "FeatureCollection",
  "features": [
    {
      "type": "Feature",
      "properties": {
        "norad_id": 66955,
        "name": "HULIANWANG DIGUI-116",
        "group": "last-30-days",
        "lat": -84.37246004040168,
        "lon": -54.6092697304502,
        "alt_km": 1013.6043257272177,
        "timestamp": "2025-12-18T21:31:49.701332+00:00",
        "meta_object_name": "HULIANWANG DIGUI-116",
        "meta_object_id": "2025-287C",
        "meta_epoch": "2025-12-17T12:36:13.610592",
        "meta_mean_motion": 13.68336268,
        "meta_eccentricity": 0.00084488,
        "meta_inclination": 86.4911,
        "meta_ra_of_asc_node": 344.4027,
        "meta_arg_of_pericenter": 182.8757,
        "meta_mean_anomaly": 177.2355,
        "meta_ephemeris_type": 0,
        "meta_classification_type": "U",
        "meta_norad_cat_id": 66955,
        "meta_element_set_no": 999,
        "meta_rev_at_epoch": 118,
        "meta_bstar": 0.00015602229,
        "meta_mean_motion_dot": 1.5e-06,
        "meta_mean_motion_ddot": 0,
        "tle_line1": "1 66955U 25287C   25351.52515753  .00000150  00000+0  15602-3 0  9996",
        "tle_line2": "2 66955  86.4911 344.4027 0008448 182.8757 177.2355 13.68336268  1184"
      },
      "geometry": {
        "type": "Point",
        "coordinates": [
          -54.6092697304502,
          -84.37246004040168
        ]
      }
    },
    {
      "type": "Feature",
      "properties": {
        "norad_id": 66956,
        "name": "HULIANWANG DIGUI-117",
        "group": "last-30-days",
        "lat": -75.31356065505334,
        "lon": -29.60028932973231,
        "alt_km": 1012.4976963842737,
        "timestamp": "2025-12-18T21:31:49.701342+00:00",
        "meta_object_name": "HULIANWANG DIGUI-117",
        "meta_object_id": "2025-287D",
        "meta_epoch": "2025-12-16T06:45:06.569856",
        "meta_mean_motion": 13.69018692,
        "meta_eccentricity": 0.00077617,
        "meta_inclination": 86.4974,
        "meta_ra_of_asc_node": 344.867,
        "meta_arg_of_pericenter": 181.5999,
        "meta_mean_anomaly": 178.5137,
        "meta_ephemeris_type": 0,
        "meta_classification_type": "U",
        "meta_norad_cat_id": 66956,
        "meta_element_set_no": 999,
        "meta_rev_at_epoch": 101,
        "meta_bstar": 2.3352809e-05,
        "meta_mean_motion_dot": 3.7e-07,
        "meta_mean_motion_ddot": 0,
        "tle_line1": "1 66956U 25287D   25350.28132604  .00000037  00000+0  23353-4 0  9996",
        "tle_line2": "2 66956  86.4974 344.8670 0007761 181.5999 178.5137 13.69018692  1016"
      },
      "geometry": {
        "type": "Point",
        "coordinates": [
          -29.60028932973231,
          -75.31356065505334
        ]
      }
    },
    {
      "type": "Feature",
      "properties": {
        "norad_id": 66957,
        "name": "HULIANWANG DIGUI-118",
        "group": "last-30-days",
        "lat": -76.82275662201243,
        "lon": -31.267456142590028,
        "alt_km": 1014.2351774760282,
        "timestamp": "2025-12-18T21:31:49.701352+00:00",
        "meta_object_name": "HULIANWANG DIGUI-118",
        "meta_object_id": "2025-287E",
        "meta_epoch": "2025-12-17T14:19:24.841920",
        "meta_mean_motion": 13.68572802,
        "meta_eccentricity": 0.00077566,
        "meta_inclination": 86.4948,
        "meta_ra_of_asc_node": 344.3824,
        "meta_arg_of_pericenter": 174.8369,
        "meta_mean_anomaly": 185.2872,
        "meta_ephemeris_type": 0,
        "meta_classification_type": "U",
        "meta_norad_cat_id": 66957,
        "meta_element_set_no": 999,
        "meta_rev_at_epoch": 119,
        "meta_bstar": 0.00015194853,
        "meta_mean_motion_dot": 1.47e-06,
        "meta_mean_motion_ddot": 0,
        "tle_line1": "1 66957U 25287E   25351.59681530  .00000147  00000+0  15195-3 0  9995",
        "tle_line2": "2 66957  86.4948 344.3824 0007756 174.8369 185.2872 13.68572802  1191"
      },
      "geometry": {
        "type": "Point",
        "coordinates": [
          -31.267456142590028,
          -76.82275662201243
        ]
      }
    },
    {
      "type": "Feature",
      "properties": {
        "norad_id": 66958,
        "name": "CZ-6A R/B",
        "group": "last-30-days",
        "lat": 51.383488306264,
        "lon": 159.3729487946245,
        "alt_km": 850.8087000994637,
        "timestamp": "2025-12-18T21:31:49.701362+00:00",
        "meta_object_name": "CZ-6A R/B",
        "meta_object_id": "2025-287F",
        "meta_epoch": "2025-12-18T07:09:15.432192",
        "meta_mean_motion": 13.9492059,
        "meta_eccentricity": 0.01073225,
        "meta_inclination": 86.5059,
        "meta_ra_of_asc_node": 343.9874,
        "meta_arg_of_pericenter": 85.4498,
        "meta_mean_anomaly": 275.8925,
        "meta_ephemeris_type": 0,
        "meta_classification_type": "U",
        "meta_norad_cat_id": 66958,
        "meta_element_set_no": 999,
        "meta_rev_at_epoch": 131,
        "meta_bstar": 3.667809e-05,
        "meta_mean_motion_dot": 7.1e-07,
        "meta_mean_motion_ddot": 0,
        "tle_line1": "1 66958U 25287F   25352.29809528  .00000071  00000+0  36678-4 0  9999",
        "tle_line2": "2 66958  86.5059 343.9874 0107322  85.4498 275.8925 13.94920590  1315"
      },
      "geometry": {
        "type": "Point",
        "coordinates": [
          159.3729487946245,
          51.383488306264
        ]
      }
    },
    {
      "type": "Feature",
      "properties": {
        "norad_id": 66959,
        "name": "STARLINK-35887",
        "group": "last-30-days",
        "lat": -11.297953523944447,
        "lon": -38.132571199698596,
        "alt_km": 316.8377162879642,
        "timestamp": "2025-12-18T21:31:49.701375+00:00",
        "meta_object_name": "STARLINK-35887",
        "meta_object_id": "2025-288A",
        "meta_epoch": "2025-12-18T06:00:02.999808",
        "meta_mean_motion": 15.86775935,
        "meta_eccentricity": 0.00016944,
        "meta_inclination": 43.001,
        "meta_ra_of_asc_node": 133.4778,
        "meta_arg_of_pericenter": 273.4956,
        "meta_mean_anomaly": 184.2274,
        "meta_ephemeris_type": 0,
        "meta_classification_type": "U",
        "meta_norad_cat_id": 66959,
        "meta_element_set_no": 999,
        "meta_rev_at_epoch": 271,
        "meta_bstar": -0.005043866,
        "meta_mean_motion_dot": -0.01191059,
        "meta_mean_motion_ddot": 0,
        "tle_line1": "1 66959U 25288A   25352.25003472 -.01191059  00000+0 -50439-2 0  9990",
        "tle_line2": "2 66959  43.0010 133.4778 0001694 273.4956 184.2274 15.86775935  2718"
      },
      "geometry": {
        "type": "Point",
        "coordinates": [
          -38.132571199698596,
          -11.297953523944447
        ]
      }
    },
    {
      "type": "Feature",
      "properties": {
        "norad_id": 66960,
        "name": "STARLINK-35879",
        "group": "last-30-days",
        "lat": -12.536349977074373,
        "lon": -36.712115320383056,
        "alt_km": 316.72982808670804,
        "timestamp": "2025-12-18T21:31:49.701387+00:00",
        "meta_object_name": "STARLINK-35879",
        "meta_object_id": "2025-288B",
        "meta_epoch": "2025-12-18T06:00:02.999808",
        "meta_mean_motion": 15.86812723,
        "meta_eccentricity": 0.0001457,
        "meta_inclination": 43.0009,
        "meta_ra_of_asc_node": 133.4731,
        "meta_arg_of_pericenter": 267.5438,
        "meta_mean_anomaly": 191.9708,
        "meta_ephemeris_type": 0,
        "meta_classification_type": "U",
        "meta_norad_cat_id": 66960,
        "meta_element_set_no": 999,
        "meta_rev_at_epoch": 271,
        "meta_bstar": -0.0050755268,
        "meta_mean_motion_dot": -0.01199543,
        "meta_mean_motion_ddot": 0,
        "tle_line1": "1 66960U 25288B   25352.25003472 -.01199543  00000+0 -50755-2 0  9999",
        "tle_line2": "2 66960  43.0009 133.4731 0001457 267.5438 191.9708 15.86812723  2717"
      },
      "geometry": {
        "type": "Point",
        "coordinates": [
          -36.712115320383056,
          -12.536349977074373
        ]
      }
    },
    {
      "type": "Feature",
      "properties": {
        "norad_id": 66961,
        "name": "STARLINK-35761",
        "group": "last-30-days",
        "lat": -13.873929501385934,
        "lon": -35.15203845157898,
        "alt_km": 316.7972102454132,
        "timestamp": "2025-12-18T21:31:49.701399+00:00",
        "meta_object_name": "STARLINK-35761",
        "meta_object_id": "2025-288C",
        "meta_epoch": "2025-12-18T06:00:02.999808",
        "meta_mean_motion": 15.86840007,
        "meta_eccentricity": 0.00016442,
        "meta_inclination": 43.001,
        "meta_ra_of_asc_node": 133.4684,
        "meta_arg_of_pericenter": 271.2049,
        "meta_mean_anomaly": 190.2726,
        "meta_ephemeris_type": 0,
        "meta_classification_type": "U",
        "meta_norad_cat_id": 66961,
        "meta_element_set_no": 999,
        "meta_rev_at_epoch": 271,
        "meta_bstar": -0.0050579716,
        "meta_mean_motion_dot": -0.01197401,
        "meta_mean_motion_ddot": 0,
        "tle_line1": "1 66961U 25288C   25352.25003472 -.01197401  00000+0 -50580-2 0  9997",
        "tle_line2": "2 66961  43.0010 133.4684 0001644 271.2049 190.2726 15.86840007  2713"
      },
      "geometry": {
        "type": "Point",
        "coordinates": [
          -35.15203845157898,
          -13.873929501385934
        ]
      }
    }
  ]
}